#cV2022  2 24  0  0  0.00000000    1886   SLR   ECF FIT NSGF
## 2198 345600.00000000   180.00000000 59634 0.0000000000000
+    1   L56  0  0  0  0  0  0  0  0  0  0  0  0  0  0  0  0
+          0  0  0  0  0  0  0  0  0  0  0  0  0  0  0  0  0
+          0  0  0  0  0  0  0  0  0  0  0  0  0  0  0  0  0
+          0  0  0  0  0  0  0  0  0  0  0  0  0  0  0  0  0
+          0  0  0  0  0  0  0  0  0  0  0  0  0  0  0  0  0
++         0  0  0  0  0  0  0  0  0  0  0  0  0  0  0  0  0
++         0  0  0  0  0  0  0  0  0  0  0  0  0  0  0  0  0
++         0  0  0  0  0  0  0  0  0  0  0  0  0  0  0  0  0
++         0  0  0  0  0  0  0  0  0  0  0  0  0  0  0  0  0
++         0  0  0  0  0  0  0  0  0  0  0  0  0  0  0  0  0
%c L  cc UTC ccc cccc cccc cccc cccc ccccc ccccc ccccc ccccc
%c cc cc ccc ccc cccc cccc cccc cccc ccccc ccccc ccccc ccccc
%f  0.0000000  0.000000000  0.00000000000  0.000000000000000
%f  0.0000000  0.000000000  0.00000000000  0.000000000000000
%i    0    0    0    0      0      0      0      0         0
%i    0    0    0    0      0      0      0      0         0
/*                                                          
/* Earth-centered-fixed orbital predictions from SGF ILRS AC
/* The underlying ECF frame is that of IERS/ITRF            
/* Note: Solution based on 4-day long arc                   
/*                                                          
*  2022  2 24 20 24  0.00000000
PL56  -6025.239535   3391.465832  -1943.588156
VL56  25635.914000   5204.149600 -70807.752000
*  2022  2 24 20 27  0.00000000
PL56  -5461.574170   3418.989392  -3176.839646
VL56  36776.990000  -2201.875500 -65822.193000
*  2022  2 24 20 30  0.00000000
PL56  -4710.195619   3311.080831  -4299.479908
VL56  46432.323000  -9793.735100 -58554.902000
*  2022  2 24 20 33  0.00000000
PL56  -3800.919597   3067.131559  -5272.678419
VL56  54271.999000 -17266.128000 -49266.991000
*  2022  2 24 20 36  0.00000000
PL56  -2768.852245   2692.058560  -6062.925935
VL56  60039.598000 -24312.482000 -38286.671000
*  2022  2 24 20 39  0.00000000
PL56  -1652.997738   2196.217575  -6643.135191
VL56  63559.366000 -30637.032000 -25997.089000
*  2022  2 24 20 42  0.00000000
PL56   -494.767323   1595.103152  -6993.504196
VL56  64739.906000 -35966.379000 -12822.185000
*  2022  2 24 20 45  0.00000000
PL56    663.548480    908.851537  -7102.125238
VL56  63574.767000 -40059.825000    787.172270
*  2022  2 24 20 48  0.00000000
PL56   1780.294302    161.567513  -6965.343753
VL56  60140.585000 -42718.603000  14367.093000
*  2022  2 24 20 51  0.00000000
PL56   2815.915422   -619.508235  -6587.864796
VL56  54593.194000 -43794.310000  27455.066000
*  2022  2 24 20 54  0.00000000
PL56   3734.330343  -1404.968601  -5982.603105
VL56  47161.474000 -43195.638000  39603.780000
*  2022  2 24 20 57  0.00000000
PL56   4504.174525  -2164.318564  -5170.282639
VL56  38139.244000 -40893.797000  50395.032000
*  2022  2 24 21  0  0.00000000
PL56   5099.882967  -2867.136782  -4178.788205
VL56  27875.156000 -36926.184000  59453.764000
*  2022  2 24 21  3  0.00000000
PL56   5502.571457  -3484.281741  -3042.269229
VL56  16760.643000 -31397.565000  66461.115000
*  2022  2 24 21  6  0.00000000
PL56   5700.680890  -3989.093623  -1800.012707
VL56   5215.721000 -24478.438000  71167.006000
*  2022  2 24 21  9  0.00000000
PL56   5690.351539  -4358.541064   -495.110197
VL56  -6326.906400 -16400.439000  73400.321000
*  2022  2 24 21 12  0.00000000
PL56   5475.501542  -4574.258895    827.038798
VL56 -17438.612000  -7448.883300  73076.731000
*  2022  2 24 21 15  0.00000000
PL56   5067.596980  -4623.422956   2120.333698
VL56 -27712.219000   2047.878300  70203.120000
*  2022  2 24 21 18  0.00000000
PL56   4485.116752  -4499.410440   3339.622184
VL56 -36778.296000  11731.506000  64877.636000
*  2022  2 24 21 21  0.00000000
PL56   3752.740421  -4202.210986   4442.316485
VL56 -44319.485000  21228.062000  57286.152000
*  2022  2 24 21 24  0.00000000
PL56   2900.298823  -3738.571213   5389.911192
VL56 -50082.504000  30163.283000  47694.912000
*  2022  2 24 21 27  0.00000000
PL56   1961.538893  -3121.862976   6149.340445
VL56 -53886.675000  38177.773000  36440.132000
*  2022  2 24 21 30  0.00000000
PL56    972.764170  -2371.684941   6694.126222
VL56 -55629.221000  44941.377000  23915.233000
*  2022  2 24 21 33  0.00000000
PL56    -28.589572  -1513.217769   7005.281276
VL56 -55287.148000  50166.049000  10556.671000
*  2022  2 24 21 36  0.00000000
PL56  -1005.383259   -576.360753   7071.947610
VL56 -52915.974000  53617.298000  -3171.258600
*  2022  2 24 21 39  0.00000000
PL56  -1922.156775    405.321437   6891.761332
VL56 -48645.884000  55123.778000 -16791.715000
*  2022  2 24 21 42  0.00000000
PL56  -2746.422144   1395.807650   6470.936996
VL56 -42675.720000  54584.967000 -29830.981000
*  2022  2 24 21 45  0.00000000
PL56  -3449.826699   2357.946532   5824.068941
VL56 -35264.599000  51976.552000 -41834.257000
*  2022  2 24 21 48  0.00000000
PL56  -4009.149642   3254.858974   4973.652978
VL56 -26721.756000  47353.392000 -52380.998000
*  2022  2 24 21 51  0.00000000
PL56  -4407.098740   4051.370392   3949.331858
VL56 -17394.529000  40849.761000 -61100.047000
*  2022  2 24 21 54  0.00000000
PL56  -4632.874337   4715.416655   2786.878772
VL56  -7654.576600  32676.234000 -67683.644000
*  2022  2 24 21 57  0.00000000
PL56  -4682.472971   5219.365059   1526.945049
VL56   2117.270800  23113.166000 -71899.358000
*  2022  2 24 22  0  0.00000000
PL56  -4558.712576   5541.184837    213.612576
VL56  11546.471000  12500.706000 -73599.666000
*  2022  2 24 22  3  0.00000000
PL56  -4270.980392   5665.408327  -1107.190921
VL56  20280.146000   1225.591900 -72727.772000
*  2022  2 24 22  6  0.00000000
PL56  -3834.711039   5583.835388  -2389.353656
VL56  28001.516000 -10294.272000 -69319.966000
*  2022  2 24 22  9  0.00000000
PL56  -3270.617484   5295.937774  -3588.239435
VL56  34442.774000 -21627.181000 -63503.229000
*  2022  2 24 22 12  0.00000000
PL56  -2603.723051   4808.951041  -4662.267533
VL56  39394.175000 -32345.133000 -55488.670000
*  2022  2 24 22 15  0.00000000
PL56  -1862.249805   4137.656741  -5574.347374
VL56  42710.740000 -42040.328000 -45562.199000
*  2022  2 24 22 18  0.00000000
PL56  -1076.422871   3303.881853  -6293.120808
VL56  44315.189000 -50340.094000 -34072.956000
*  2022  2 24 22 21  0.00000000
PL56   -277.243461   2335.741217  -6793.985197
VL56  44198.418000 -56920.544000 -21420.091000
*  2022  2 24 22 24  0.00000000
PL56    504.720085   1266.656552  -7059.868926
VL56  42417.015000 -61517.577000  -8038.814400
*  2022  2 24 22 27  0.00000000
PL56   1240.476662    134.196617  -7081.753484
VL56  39088.744000 -63935.820000   5613.660900
*  2022  2 24 22 30  0.00000000
PL56   1903.661015  -1021.227183  -6858.941971
VL56  34386.407000 -64055.795000  19072.256000
*  2022  2 24 22 33  0.00000000
PL56   2471.455081  -2157.772732  -6399.071054
VL56  28529.982000 -61838.677000  31878.381000
*  2022  2 24 22 36  0.00000000
PL56   2925.359581  -3233.646522  -5717.873541
VL56  21777.774000 -57328.979000  43593.379000
*  2022  2 24 22 39  0.00000000
PL56   3251.798662  -4208.618905  -4838.693611
VL56  14416.774000 -50655.865000  53812.610000
*  2022  2 24 22 42  0.00000000
PL56   3442.535086  -5045.527561  -3791.745148
VL56   6751.252900 -42030.326000  62179.578000
*  2022  2 24 22 45  0.00000000
PL56   3494.878365  -5711.709328  -2613.132763
VL56   -908.728070 -31740.206000  68398.309000
*  2022  2 24 22 48  0.00000000
PL56   3411.678929  -6180.313189  -1343.651354
VL56  -8259.642400 -20141.701000  72245.498000
*  2022  2 24 22 51  0.00000000
PL56   3201.099712  -6431.426823    -27.388970
VL56 -15016.812000  -7647.288600  73579.938000
*  2022  2 24 22 54  0.00000000
PL56   2876.168115  -6452.955753   1289.818275
VL56 -20926.283000   5289.628800  72349.352000
*  2022  2 24 22 57  0.00000000
PL56   2454.126464  -6241.205159   2562.015928
VL56 -25775.272000  18192.260000  68593.123000
*  2022  2 24 23  0  0.00000000
PL56   1955.610716  -5801.128399   3744.779296
VL56 -29400.715000  30579.741000  62441.231000
*  2022  2 24 23  3  0.00000000
PL56   1403.697562  -5146.227825   4796.800909
VL56 -31695.259000  41986.157000  54108.848000
*  2022  2 24 23  6  0.00000000
PL56    822.870701  -4298.119764   5681.355429
VL56 -32610.208000  51978.783000  43888.323000
*  2022  2 24 23  9  0.00000000
PL56    237.954833  -3285.782248   6367.589561
VL56 -32156.205000  60175.081000  32137.699000
*  2022  2 24 23 12  0.00000000
PL56   -326.933678  -2144.518408   6831.585272
VL56 -30400.730000  66256.914000  19267.111000
*  2022  2 24 23 15  0.00000000
PL56   -849.371345   -914.691892   7057.168147
VL56 -27463.434000  69981.789000   5724.386800
*  2022  2 24 23 18  0.00000000
PL56  -1309.511518    359.719762   7036.453067
VL56 -23509.778000  71191.963000  -8019.808000
*  2022  2 24 23 21  0.00000000
PL56  -1690.838585   1632.710731   6770.112419
VL56 -18742.971000  69820.613000 -21487.989000
*  2022  2 24 23 24  0.00000000
PL56  -1980.766149   2857.916560   6267.359592
VL56 -13394.754000  65894.966000 -34211.284000
*  2022  2 24 23 27  0.00000000
PL56  -2171.060324   3990.315476   5545.649763
VL56  -7715.250500  59536.770000 -45745.361000
*  2022  2 24 23 30  0.00000000
PL56  -2258.074652   4987.907389   4630.102412
VL56  -1962.239000  50959.317000 -55685.442000
*  2022  2 24 23 33  0.00000000
PL56  -2242.789041   5813.313374   3552.653033
VL56   3609.890600  40461.438000 -63681.337000
*  2022  2 24 23 36  0.00000000
PL56  -2130.648805   6435.228758   2350.948801
VL56   8761.157900  28417.220000 -69450.759000
*  2022  2 24 23 39  0.00000000
PL56  -1931.209748   6829.662256   1067.021841
VL56  13276.520000  15262.633000 -72790.409000
*  2022  2 24 23 42  0.00000000
PL56  -1657.602239   6980.902629   -254.212663
VL56  16975.282000   1478.743500 -73584.284000
*  2022  2 24 23 45  0.00000000
PL56  -1325.840555   6882.163162  -1566.575024
VL56  19718.826000 -12427.271000 -71808.414000
EOF
